ONEWEB-0674             
1 55833U 23029AP  25161.57354368 -.00000051  00000+0 -17272-3 0  9995
2 55833  87.9038   3.6642 0001268  90.3983 269.7292 13.14504219110594
ONEWEB-0675             
1 55834U 23029AQ  25161.55332528  .00000035  00000+0  55139-4 0  9993
2 55834  87.9227  18.8748 0002149  83.2552 276.8825 13.19725743109908
ONEWEB-0720             
1 55835U 23029AR  25161.54542153  .00000147  00000+0  33560-3 0  9997
2 55835  87.9228  18.8727 0001840  99.6528 260.4812 13.19725102109823
ONEWEB-0537             
1 56046U 23043A   25161.41747130 -.00000089  00000+0 -26619-3 0  9990
2 56046  87.9042 302.8563 0002033  93.7705 266.3658 13.16595633110043
ONEWEB-0538             
1 56047U 23043B   25161.41112593 -.00000230  00000+0 -63426-3 0  9995
2 56047  87.9034 302.8776 0002143 100.4331 259.7041 13.16593902110054
ONEWEB-0546             
1 56048U 23043C   25161.62644632  .00000154  00000+0  36824-3 0  9998
2 56048  87.9048 302.8079 0002142  79.4091 280.7281 13.16593938110074
ONEWEB-0547             
1 56049U 23043D   25161.50440332  .00000035  00000+0  52302-4 0  9995
2 56049  87.9241 318.1077 0002009 100.0425 260.0936 13.21826622109129
ONEWEB-0548             
1 56050U 23043E   25161.42379256 -.00000236  00000+0 -65000-3 0  9997
2 56050  87.9032 302.8850 0001302 101.0383 259.0895 13.16593592110043
